satname,norad_id,inclination_deg,eccentricity,mean_motion_rev_per_day,perigee_km,apogee_km,l1,l2
STARLINK-1513,45786,53.0559,0.000134,15.06401487,546.2790044051271,548.1349965972613,1 45786U 20038BJ  26016.43371727 -.00001406  00000+0 -75508-4 0  9993,2 45786  53.0559  71.2044 0001340  88.5936 271.5206 15.06401487308880
STARLINK-1522,46027,53.0542,0.0001823,15.06385885,545.9923197895878,548.5173176466933,1 46027U 20055A   26016.21534787 -.00000764  00000+0 -32389-4 0  9990,2 46027  53.0542   2.1826 0001823  90.5377 269.5821 15.06385885300975
STARLINK-1523,46028,53.0555,0.0001406,15.06400297,546.2369437969392,548.1843515554656,1 46028U 20055B   26016.36276805  .00001594  00000+0  12586-3 0  9997,2 46028  53.0555   1.5234 0001406  86.3918 273.7232 15.06400297301011
STARLINK-1526,46029,53.0559,0.000135,15.06399331,546.2786859955577,548.148530659806,1 46029U 20055C   26016.35539683  .00001218  00000+0  10066-3 0  9997,2 46029  53.0559   1.5533 0001350  92.9414 267.1729 15.06399331301003
STARLINK-1555,46032,53.0568,0.000151,15.06395872,546.1784801499643,548.2699392352924,1 46032U 20055F   26016.20795871  .00000451  00000+0  49183-4 0  9999,2 46032  53.0568   2.2162 0001510  93.9670 266.1492 15.06395872300984
STARLINK-1556,46033,53.0558,0.0001474,15.06398889,546.1941661160117,548.2357598747021,1 46033U 20055G   26016.32222237  .00001042  00000+0  88857-4 0  9992,2 46033  53.0558   1.7039 0001474  83.9137 276.2020 15.06398889300976
STARLINK-1557,46034,53.0563,0.0001324,15.06394377,546.3118732462071,548.145710107844,1 46034U 20055H   26016.25956221  .00000657  00000+0  62971-4 0  9992,2 46034  53.0563   1.9851 0001324  86.4684 273.6456 15.06394377300967
STARLINK-1558,46035,53.056,0.000139,15.06404587,546.2348779841732,548.1601209750279,1 46035U 20055J   26016.33329433  .00002789  00000+0  20606-3 0  9997,2 46035  53.0560   1.6559 0001390  93.5739 266.5409 15.06404587301000
STARLINK-1560,46036,53.0547,0.0001494,15.06404198,546.1640465504397,548.2333368551199,1 46036U 20055K   26016.31853503  .00003766  00000+0  27157-3 0  9990,2 46036  53.0547   1.7221 0001494  88.6639 271.4521 15.06404198301000
STARLINK-1567,46038,53.0559,0.0001416,15.06401465,546.2264392078969,548.187696647934,1 46038U 20055M   26016.39593743  .00001367  00000+0  11062-3 0  9990,2 46038  53.0559   1.3728 0001416  86.6119 273.5032 15.06401465301002
STARLINK-1569,46039,53.0559,0.0001333,15.06397025,546.2975257216076,548.1438260780023,1 46039U 20055N   26016.33696491  .00000699  00000+0  65811-4 0  9998,2 46039  53.0559   1.6374 0001333  90.7183 269.3959 15.06397025300992
STARLINK-1582,46043,53.0579,0.0001297,15.06391236,546.3401972744805,548.1366396580315,1 46043U 20055S   26016.21166098  .00000877  00000+0  77756-4 0  9994,2 46043  53.0579   2.2026 0001297  90.2421 269.8716 15.06391236300971
STARLINK-1591,46045,53.0544,0.0001284,15.06403675,546.3110813068433,548.0895079241009,1 46045U 20055U   26016.37013815  .00000599  00000+0  59064-4 0  9994,2 46045  53.0544   1.4881 0001284  91.4868 268.6268 15.06403675300980
STARLINK-1524,46047,53.0553,0.0001415,15.06403778,546.2200437540905,548.1799141191295,1 46047U 20055W   26016.32314507  .00002530  00000+0  18866-3 0  9994,2 46047  53.0553 351.7002 0001415  83.2619 276.8532 15.06403778301134
STARLINK-1527,46048,53.056,0.0001602,15.0639753,546.1096860911475,548.3285701946061,1 46048U 20055X   26016.31945889  .00000708  00000+0  66454-4 0  9999,2 46048  53.0560 351.7165 0001602  86.7358 273.3815 15.06397530301111
STARLINK-1540,46051,53.0569,0.0001376,15.06404319,546.2453947168042,548.151246997103,1 46051U 20055AA  26016.61801587  .00001515  00000+0  12054-3 0  9995,2 46051  53.0569 350.3765 0001376  86.4021 273.7126 15.06404319301198
STARLINK-1541,46052,53.0543,0.000152,15.06405195,546.1429854965709,548.2482866179325,1 46052U 20055AB  26016.33789316  .00000409  00000+0  46375-4 0  9995,2 46052  53.0543 351.6328 0001520  95.1242 264.9921 15.06405195301113
STARLINK-1543,46053,53.0554,0.0001367,15.06406403,546.2452412697476,548.1386262002316,1 46053U 20055AC  26016.34156680  .00000248  00000+0  35559-4 0  9992,2 46053  53.0554 351.6170 0001367  85.1898 274.9247 15.06406403301144
STARLINK-1548,46054,53.0562,0.0001665,15.06369001,546.1534806839563,548.4596533917802,1 46054U 20055AD  26016.61434417  .00004728  00000+0  33634-3 0  9998,2 46054  53.0562 350.3935 0001665  85.8930 274.2249 15.06369001301185
STARLINK-1554,46055,53.0539,0.0001269,15.06403375,546.3223886493133,548.0800394880443,1 46055U 20055AE  26016.33420811  .00002088  00000+0  15902-3 0  9996,2 46055  53.0539 351.6509 0001269  87.1287 272.9848 15.06403375301140
STARLINK-1564,46058,53.057,0.0001734,15.0640541,545.9941245522514,548.3958296819146,1 46058U 20055AH  26016.61069193  .00002143  00000+0  16269-3 0  9991,2 46058  53.0570 350.8659 0001734  76.5727 283.5455 15.06405410301170
STARLINK-1570,46059,53.0554,0.0001306,15.06393865,546.3259079161571,548.1348138708236,1 46059U 20055AJ  26016.30839973 -.00000045  00000+0  15876-4 0  9993,2 46059  53.0554 351.7678 0001306  89.3360 270.7779 15.06393865301092
STARLINK-1572,46060,53.0567,0.0001311,15.06389882,546.3346510631827,548.1504855859966,1 46060U 20055AK  26016.30471924 -.00000547  00000+0 -17846-4 0  9990,2 46060  53.0567 351.7822 0001311  86.5298 273.5841 15.06389882301101
STARLINK-1573,46061,53.0561,0.0001467,15.0640021,546.1949657795667,548.2268628576285,1 46061U 20055AL  26016.30103741  .00000707  00000+0  66373-4 0  9995,2 46061  53.0561 351.8333 0001467  86.8257 273.2900 15.06400210301139
STARLINK-1577,46063,53.0556,0.0001469,15.06399881,546.194588899426,548.229256412902,1 46063U 20055AN  26016.32682712  .00002553  00000+0  19020-3 0  9996,2 46063  53.0556 351.6824 0001469  83.2931 276.8225 15.06399881301130
STARLINK-1583,46064,53.0555,0.0001513,15.06413546,546.1222427549537,548.217840665774,1 46064U 20055AP  26016.29365348  .00005913  00000+0  41536-3 0  9996,2 46064  53.0555 351.8325 0001513  82.4626 277.6535 15.06413546301138
STARLINK-1525,46066,53.0561,0.0001387,15.06399568,546.2523359277466,548.1734279850007,1 46066U 20055AR  26016.55719820  .00000904  00000+0  79582-4 0  9993,2 46066  53.0561 330.6486 0001387  88.7526 271.3622 15.06399568301446
STARLINK-1536,46070,53.0573,0.0001569,15.06400304,546.1240391796646,548.2972132647719,1 46070U 20055AV  26016.60143642  .00001124  00000+0  94312-4 0  9990,2 46070  53.0573 330.4518 0001569  90.6291 269.4877 15.06400304301464
